COSMOS 1953             
1 19210U 88050A   15363.51373313  .00000710  00000-0  48794-4 0  9992
2 19210  82.5164 192.4359 0012224 288.9377  71.0524 15.04408321497275
SL-8 R/B                
1 19257U 88053B   15362.94739935  .00000075  00000-0  33931-4 0  9999
2 19257  74.0493 122.3015 0019781 148.7395 350.5693 14.37273739441725
COSMOS 1975             
1 19573U 88093A   15362.83586842  .00001308  00000-0  94219-4 0  9995
2 19573  82.5209 144.1128 0013905 328.6168  31.4227 15.03309151479205
SL-14 R/B               
1 19574U 88093B   15363.41386039  .00000243  00000-0  26742-4 0  9990
2 19574  82.5336 285.9336 0023302  83.2788  52.4663 14.83100124470031
SL-16 R/B               
1 19650U 88102B   15362.52338984 -.00000216  00000-0 -85675-4 0  9995
2 19650  70.9990  63.5262 0016701 277.6172  82.3054 14.15725288400030
INTERCOSMOS 24          
1 20261U 89080A   15363.07028323  .00000272  00000-0  81276-4 0  9998
2 20261  82.5933 357.1873 1204190 252.9306  93.6662 12.55683794198674
SL-14 R/B               
1 20262U 89080C   15362.72842411  .00000145  00000-0  36280-4 0  9996
2 20262  82.5930  39.6597 1238321  39.5727 328.9434 12.48767152194766
DELTA 1 R/B             
1 20323U 89089B   15363.14603227  .00000132  00000-0  43635-4 0  9998
2 20323  97.0700  24.5265 0071116 328.4531  31.2411 14.48070354377141
DELTA 2 R/B(1)          
1 20453U 90008B   15362.81043864  .00002123  00000-0  12874-3 0  9995
2 20453  35.6246 136.4445 0298852  34.2745 327.6871 14.80483731368581
COSMOS 2058             
1 20465U 90010A   15363.51418178  .00000892  00000-0  75313-4 0  9992
2 20465  82.4896  42.6975 0014352 301.0384  58.9429 14.96925665405181
SL-14 R/B               
1 20466U 90010B   15363.00546759  .00000202  00000-0  23011-4 0  9997
2 20466  82.5029 154.2529 0019305 301.7236  58.2095 14.81169737398123
SL-14 R/B               
1 20511U 90018B   15363.40104334  .00000191  00000-0  22149-4 0  9997
2 20511  82.5241  93.0353 0018968  71.8184 334.1314 14.79834207392825
HST                     
1 20580U 90037B   15363.19012001  .00001417  00000-0  78474-4 0  9993
2 20580  28.4709 307.6875 0002938 168.1123 318.8241 15.08026917209273
SL-16 R/B               
1 20625U 90046B   15362.50611612  .00000173  00000-0  11454-3 0  9992
2 20625  70.9968 195.4953 0015370 209.9508 170.2821 14.14591063321945
COSMOS 2084             
1 20663U 90055A   15363.07107850  .00000465  00000-0  60694-4 0  9996
2 20663  62.7926 216.6176 0106021  35.4078 325.3993 14.90924809379859
SL-6 R/B(2)             
1 20666U 90055D   15362.79592812  .00000461  00000-0  58171-4 0  9996
2 20666  62.7840 137.9114 0122592  56.0499 305.2176 14.91310748381160
SL-8 R/B                
1 20775U 90078B   15362.46396567  .00009527  00000-0  49090-3 0  9996
2 20775  82.9323 126.9977 0604672 191.4344 167.2585 14.26734128272117
SL-8 R/B                
1 21088U 91006B   15362.54298189  .00000082  00000-0  67109-4 0  9995
2 21088  82.9425  59.1652 0023022  26.0029  83.0826 13.77016748251747
OKEAN-3                 
1 21397U 91039A   15362.83521942  .00000899  00000-0  86062-4 0  9997
2 21397  82.5234 287.7132 0016771 227.5546 132.4257 14.91991580329792
COSMOS 2151             
1 21422U 91042A   15362.69373319  .00000602  00000-0  57652-4 0  9992
2 21422  82.5001  36.8628 0012796 287.2549  72.7269 14.91468652328523
SL-14 R/B               
1 21423U 91042B   15362.79437515  .00000222  00000-0  26579-4 0  9995
2 21423  82.4950 102.6452 0017092 202.8285 157.2170 14.79587471323260
ERS-1                   
1 21574U 91050A   15362.89300353  .00000169  00000-0  70351-4 0  9998
2 21574  98.3938 309.7035 0034070 116.7485 243.7195 14.37428649280542
ARIANE 40 R/B           
1 21610U 91050F   15362.76813821  .00000098  00000-0  45101-4 0  9990
2 21610  98.6805  42.7469 0004254 102.8649  12.2789 14.40687504282870
INTERCOSMOS 25          
1 21819U 91086A   15363.44885262  .00001152  00000-0  21844-3 0  9993
2 21819  82.5553  25.0474 1527746 146.3699 224.4557 12.03974541 47795
SL-14 R/B               
1 21820U 91086B   15363.38350959  .00000302  00000-0  60706-4 0  9995
2 21820  82.5628  74.5066 1577118 314.0812  34.0476 11.93072478 42881
SL-8 R/B                
1 21876U 92008B   15362.83407939  .00000008  00000-0 -73356-5 0  9991
2 21876  82.9262 155.8254 0035965  91.6631  15.1194 13.75570082197645
SL-8 R/B                
1 21938U 92020B   15363.21657657  .00000005  00000-0 -10245-4 0  9995
2 21938  82.9290  38.3736 0027969 246.3500 180.1676 13.75234711189627
SL-16 R/B               
1 22220U 92076B   15363.51537196 -.00000204  00000-0 -78317-4 0  9995
2 22220  71.0007 106.7816 0012729 358.3833  76.3169 14.16385370194923
SL-16 R/B               
1 22285U 92093B   15363.17359638  .00000288  00000-0  17312-3 0  9997
2 22285  71.0220 256.6876 0006036 238.9309 121.1222 14.14986577186718
COSMOS 2228             
1 22286U 92094A   15362.51833021  .00000755  00000-0  80658-4 0  9992
2 22286  82.5207 159.9568 0022114 101.9569 258.4129 14.87273595242718
SL-16 R/B               
1 22566U 93016B   15362.55524629  .00000142  00000-0  98040-4 0  9997
2 22566  71.0086 113.3174 0012218 237.1922 122.8024 14.14921691175364
COSMOS 2242             
1 22626U 93024A   15362.53837934  .00000642  00000-0  68152-4 0  9993
2 22626  82.5209 187.6029 0020595 100.8992 259.4544 14.87284215226374
SL-16 R/B               
1 22803U 93059B   15363.40402920 -.00000205  00000-0 -78592-4 0  9994
2 22803  70.9914 298.4200 0015206 126.5664 233.6862 14.16729873152394
ARIANE 40 R/B           
1 22830U 93061H   15363.06953039  .00000007  00000-0  19993-4 0  9999
2 22830  98.8787 355.1213 0011760  56.2239 343.8981 14.31390641161552
COSMOS 2278             
1 23087U 94023A   15362.54642925  .00000230  00000-0  14656-3 0  9992
2 23087  71.0527  40.5381 0010336 304.6547 207.3707 14.13694121118656
SL-16 R/B               
1 23088U 94023B   15363.43163015  .00000159  00000-0  10746-3 0  9996
2 23088  71.0009 326.5143 0004518 224.5507 135.5253 14.14636481119774
SL-16 R/B               
1 23343U 94074B   15362.55725834  .00000136  00000-0  27181-4 0  9998
2 23343  98.2081  21.3705 0006885   3.5842 147.7401 14.76618080137637
SL-16 R/B               
1 23405U 94077B   15362.15640353 -.00000221  00000-0 -89052-4 0  9990
2 23405  70.9833 264.4878 0001402 350.3866   9.7230 14.15170286 89534
ERS-2                   
1 23560U 95021A   15363.11498641  .00004214  00000-0  21409-3 0  9995
2 23560  98.5081 275.5863 0003349 345.0285  15.0846 15.17549571 93989
ARIANE 40+ R/B          
1 23561U 95021B   15363.05862610  .00000139  00000-0  61529-4 0  9990
2 23561  98.7533 341.9723 0007837  50.9952 359.5024 14.37686418 84219
SL-16 R/B               
1 23705U 95058B   15363.49419240 -.00000206  00000-0 -81913-4 0  9991
2 23705  71.0234  72.9250 0011399  23.5247 336.6395 14.15081165 41403
SL-16 R/B               
1 24298U 96051B   15363.46724791 -.00000042  00000-0  36247-5 0  9998
2 24298  70.8354 111.4117 0019244 257.7145 102.1820 14.12388241996171
ORBVIEW 2 (SEASTAR)     
1 24883U 97037A   15363.20774067  .00000129  00000-0  62835-4 0  9992
2 24883  98.5124 108.9576 0001418 235.2323 124.8728 14.33269445975123
SL-16 R/B               
1 25400U 98043G   15362.84484144  .00000012  00000-0  22809-4 0  9997
2 25400  98.4143 319.4644 0010954  68.5682 291.6666 14.25363403908663
SL-16 R/B               
1 25407U 98045B   15363.51528467 -.00000184  00000-0 -69233-4 0  9992
2 25407  71.0122  87.1040 0009926 295.4241  64.5855 14.15732769900362
ISS (ZARYA)             
1 25544U 98067A   15363.59725940  .00006381  00000-0  99744-4 0  9994
2 25544  51.6427 188.8431 0008125 337.5586  88.9649 15.55162867978445
SL-8 R/B                
1 25723U 99022C   15362.86912144  .00010165  00000-0  21895-3 0  9994
2 25723  48.4188 129.2938 0013581 333.8965 167.8022 15.45020184923306
CZ-4B R/B               
1 25732U 99025C   15362.84038828 -.00000014  00000-0  15356-4 0  9992
2 25732  98.9586 347.9369 0037417 176.7834 246.1694 14.17593743860645
OKEAN-O                 
1 25860U 99039A   15362.53162605  .00000355  00000-0  58816-4 0  9991
2 25860  98.1215 331.2129 0001877  81.1783  30.7370 14.76243797884652
SL-16 R/B               
1 25861U 99039B   15363.52935010  .00000206  00000-0  35627-4 0  9990
2 25861  98.0300 322.7997 0015973  12.7075 103.8829 14.78250494886636
TERRA                   
1 25994U 99068A   15363.37676367  .00000251  00000-0  65695-4 0  9997
2 25994  98.2065  75.1224 0001032  84.1614 275.9707 14.57101944852640
SL-14 R/B               
1 26874U 01032B   15363.16956919  .00019617  00000-0  14546-3 0  9994
2 26874  82.4646 108.0067 0009491 129.3782 230.8324 15.72658908808690
ENVISAT                 
1 27386U 02009A   15363.28494186  .00000052  00000-0  31198-4 0  9990
2 27386  98.3090  57.6074 0001099  75.4340 284.6969 14.37848943724062
IDEFIX & ARIANE 42P R/B 
1 27422U 02021B   15362.48360037  .00000026  00000-0  25996-4 0  9993
2 27422  98.2410  21.4078 0012881  32.6533 327.5444 14.29225778710012
AQUA                    
1 27424U 02022A   15362.85903303  .00000342  00000-0  86050-4 0  9995
2 27424  98.2165 300.8667 0001435  53.3471  12.2025 14.57112627726179
CZ-4B R/B               
1 27432U 02024C   15363.02207318  .00000013  00000-0  29859-4 0  9998
2 27432  98.9126 324.7943 0051438 110.5093 291.3038 14.13998434703021
MIDORI II (ADEOS-II)    
1 27597U 02056A   15362.55338400  .00000119  00000-0  65590-4 0  9998
2 27597  98.3039 346.0768 0002111  97.3437  10.3667 14.27164633678872
H-2A R/B                
1 27601U 02056E   15363.17124822  .00000099  00000-0  51178-4 0  9998
2 27601  98.4373  76.6552 0073357  83.5974 336.8814 14.31673375681114
CZ-4B R/B               
1 28059U 03049C   15363.55717671  .00000069  00000-0  28723-4 0  9998
2 28059  98.6350 225.4595 0051348  79.5696 338.7692 14.52410240645929
CZ-2C R/B               
1 28222U 04012C   15363.15254650  .00001329  00000-0  88556-4 0  9990
2 28222  97.4513 321.8013 0048788 222.4126 260.9401 15.07853983639794
